CTC2_L_00579001-01
1 32375U 24212ZK  26070.40851852  .00000000  00000+0  00000-0 0  9998
2 32375  65.0000   0.0000 0000000   0.0000   0.0000  3.48458077    10
CTC2_L_00579001-02
1 32376U 24481YE  26070.40851852  .00000000  00000+0  00000-0 0  9997
2 32376  65.0000   0.0000 0000000   0.0000  36.0000  3.48458077    10
CTC2_L_00579001-03
1 32377U 24595WE  26070.40851852  .00000000  00000+0  00000-0 0  9994
2 32377  65.0000   0.0000 0000000   0.0000  72.0000  3.48458077    11
CTC2_L_00579001-04
1 32378U 26383SD  26070.40851852  .00000000  00000+0  00000-0 0  9992
2 32378  65.0000   0.0000 0000000   0.0000 108.0000  3.48458077    12
CTC2_L_00579001-05
1 32379U 24442SC  26070.40851852  .00000000  00000+0  00000-0 0  9997
2 32379  65.0000   0.0000 0000000   0.0000 144.0000  3.48458077    13
CTC2_L_00579001-06
1 32380U 25750AF  26070.40851852  .00000000  00000+0  00000-0 0  9992
2 32380  65.0000   0.0000 0000000   0.0000 180.0000  3.48458077    15
CTC2_L_00579001-07
1 32381U 22273VG  26070.40851852  .00000000  00000+0  00000-0 0  9990
2 32381  65.0000   0.0000 0000000   0.0000 216.0000  3.48458077    16
CTC2_L_00579001-08
1 32382U 26344ZQ  26070.40851852  .00000000  00000+0  00000-0 0  9994
2 32382  65.0000   0.0000 0000000   0.0000 252.0000  3.48458077    17
CTC2_L_00579001-09
1 32383U 22947QS  26070.40851852  .00000000  00000+0  00000-0 0  9990
2 32383  65.0000   0.0000 0000000   0.0000 288.0000  3.48458077    17
CTC2_L_00579001-10
1 32384U 22982FI  26070.40851852  .00000000  00000+0  00000-0 0  9990
2 32384  65.0000   0.0000 0000000   0.0000 324.0000  3.48458077    19
CTC2_L_00579002-01
1 32385U 22282XN  26070.40851852  .00000000  00000+0  00000-0 0  9994
2 32385  65.0000  30.0000 0000000   0.0000  12.0000  3.48458077    17
CTC2_L_00579002-02
1 32386U 23183QO  26070.40851852  .00000000  00000+0  00000-0 0  9996
2 32386  65.0000  30.0000 0000000   0.0000  48.0000  3.48458077    17
CTC2_L_00579002-03
1 32387U 22564PU  26070.40851852  .00000000  00000+0  00000-0 0  9999
2 32387  65.0000  30.0000 0000000   0.0000  84.0000  3.48458077    18
CTC2_L_00579002-04
1 32388U 25243MW  26070.40851852  .00000000  00000+0  00000-0 0  9997
2 32388  65.0000  30.0000 0000000   0.0000 120.0000  3.48458077    10
CTC2_L_00579002-05
1 32389U 25977NA  26070.40851852  .00000000  00000+0  00000-0 0  9992
2 32389  65.0000  30.0000 0000000   0.0000 156.0000  3.48458077    10
CTC2_L_00579002-06
1 32390U 25002BH  26070.40851852  .00000000  00000+0  00000-0 0  9993
2 32390  65.0000  30.0000 0000000   0.0000 192.0000  3.48458077    12
CTC2_L_00579002-07
1 32391U 24172IW  26070.40851852  .00000000  00000+0  00000-0 0  9991
2 32391  65.0000  30.0000 0000000   0.0000 228.0000  3.48458077    13
CTC2_L_00579002-08
1 32392U 23062MS  26070.40851852  .00000000  00000+0  00000-0 0  9999
2 32392  65.0000  30.0000 0000000   0.0000 264.0000  3.48458077    14
CTC2_L_00579002-09
1 32393U 26160LC  26070.40851852  .00000000  00000+0  00000-0 0  9992
2 32393  65.0000  30.0000 0000000   0.0000 300.0000  3.48458077    16
CTC2_L_00579002-10
1 32394U 25525JH  26070.40851852  .00000000  00000+0  00000-0 0  9997
2 32394  65.0000  30.0000 0000000   0.0000 336.0000  3.48458077    16
CTC2_L_00579003-01
1 32395U 25258UX  26070.40851852  .00000000  00000+0  00000-0 0  9991
2 32395  65.0000  60.0000 0000000   0.0000  24.0000  3.48458077    14
CTC2_L_00579003-02
1 32396U 25797GW  26070.40851852  .00000000  00000+0  00000-0 0  9990
2 32396  65.0000  60.0000 0000000   0.0000  60.0000  3.48458077    15
CTC2_L_00579003-03
1 32397U 23386VL  26070.40851852  .00000000  00000+0  00000-0 0  9993
2 32397  65.0000  60.0000 0000000   0.0000  96.0000  3.48458077    15
CTC2_L_00579003-04
1 32398U 23895NN  26070.40851852  .00000000  00000+0  00000-0 0  9999
2 32398  65.0000  60.0000 0000000   0.0000 132.0000  3.48458077    17
CTC2_L_00579003-05
1 32399U 22022GG  26070.40851852  .00000000  00000+0  00000-0 0  9991
2 32399  65.0000  60.0000 0000000   0.0000 168.0000  3.48458077    17
CTC2_L_00579003-06
1 32400U 26146KA  26070.40851852  .00000000  00000+0  00000-0 0  9995
2 32400  65.0000  60.0000 0000000   0.0000 204.0000  3.48458077    11
CTC2_L_00579003-07
1 32401U 23293Q   26070.40851852  .00000000  00000+0  00000-0 0  9996
2 32401  65.0000  60.0000 0000000   0.0000 240.0000  3.48458077    12
CTC2_L_00579003-08
1 32402U 26697LF  26070.40851852  .00000000  00000+0  00000-0 0  9998
2 32402  65.0000  60.0000 0000000   0.0000 276.0000  3.48458077    12
CTC2_L_00579003-09
1 32403U 25864U   26070.40851852  .00000000  00000+0  00000-0 0  9994
2 32403  65.0000  60.0000 0000000   0.0000 312.0000  3.48458077    14
CTC2_L_00579003-10
1 32404U 23781N   26070.40851852  .00000000  00000+0  00000-0 0  9991
2 32404  65.0000  60.0000 0000000   0.0000 348.0000  3.48458077    14
CTC2_L_00579004-01
1 32405U 22424TO  26070.40851852  .00000000  00000+0  00000-0 0  9995
2 32405  65.0000  90.0000 0000000   0.0000  36.0000  3.48458077    12
CTC2_L_00579004-02
1 32406U 23392MO  26070.40851852  .00000000  00000+0  00000-0 0  9991
2 32406  65.0000  90.0000 0000000   0.0000  72.0000  3.48458077    13
CTC2_L_00579004-03
1 32407U 26663HL  26070.40851852  .00000000  00000+0  00000-0 0  9996
2 32407  65.0000  90.0000 0000000   0.0000 108.0000  3.48458077    14
CTC2_L_00579004-04
1 32408U 26878YT  26070.40851852  .00000000  00000+0  00000-0 0  9995
2 32408  65.0000  90.0000 0000000   0.0000 144.0000  3.48458077    15
CTC2_L_00579004-05
1 32409U 26383PU  26070.40851852  .00000000  00000+0  00000-0 0  9997
2 32409  65.0000  90.0000 0000000   0.0000 180.0000  3.48458077    16
CTC2_L_00579004-06
1 32410U 23789EJ  26070.40851852  .00000000  00000+0  00000-0 0  9996
2 32410  65.0000  90.0000 0000000   0.0000 216.0000  3.48458077    18
CTC2_L_00579004-07
1 32411U 26685FE  26070.40851852  .00000000  00000+0  00000-0 0  9995
2 32411  65.0000  90.0000 0000000   0.0000 252.0000  3.48458077    19
CTC2_L_00579004-08
1 32412U 26296RE  26070.40851852  .00000000  00000+0  00000-0 0  9994
2 32412  65.0000  90.0000 0000000   0.0000 288.0000  3.48458077    19
CTC2_L_00579004-09
1 32413U 22610T   26070.40851852  .00000000  00000+0  00000-0 0  9991
2 32413  65.0000  90.0000 0000000   0.0000 324.0000  3.48458077    11
CTC2_L_00579004-10
1 32414U 22348OO  26070.40851852  .00000000  00000+0  00000-0 0  9990
2 32414  65.0000  90.0000 0000000   0.0000   0.0000  3.48458077    13
CTC2_L_00579005-01
1 32415U 25587MR  26070.40851852  .00000000  00000+0  00000-0 0  9999
2 32415  65.0000 120.0000 0000000   0.0000  48.0000  3.48458077    10
CTC2_L_00579005-02
1 32416U 24331OR  26070.40851852  .00000000  00000+0  00000-0 0  9996
2 32416  65.0000 120.0000 0000000   0.0000  84.0000  3.48458077    11
CTC2_L_00579005-03
1 32417U 23029TH  26070.40851852  .00000000  00000+0  00000-0 0  9990
2 32417  65.0000 120.0000 0000000   0.0000 120.0000  3.48458077    13
CTC2_L_00579005-04
1 32418U 25690TC  26070.40851852  .00000000  00000+0  00000-0 0  9997
2 32418  65.0000 120.0000 0000000   0.0000 156.0000  3.48458077    13
CTC2_L_00579005-05
1 32419U 22909OF  26070.40851852  .00000000  00000+0  00000-0 0  9998
2 32419  65.0000 120.0000 0000000   0.0000 192.0000  3.48458077    14
CTC2_L_00579005-06
1 32420U 22531MT  26070.40851852  .00000000  00000+0  00000-0 0  9991
2 32420  65.0000 120.0000 0000000   0.0000 228.0000  3.48458077    16
CTC2_L_00579005-07
1 32421U 23795WG  26070.40851852  .00000000  00000+0  00000-0 0  9995
2 32421  65.0000 120.0000 0000000   0.0000 264.0000  3.48458077    17
CTC2_L_00579005-08
1 32422U 22383ZI  26070.40851852  .00000000  00000+0  00000-0 0  9998
2 32422  65.0000 120.0000 0000000   0.0000 300.0000  3.48458077    19
CTC2_L_00579005-09
1 32423U 24269I   26070.40851852  .00000000  00000+0  00000-0 0  9994
2 32423  65.0000 120.0000 0000000   0.0000 336.0000  3.48458077    19
CTC2_L_00579005-10
1 32424U 22081EX  26070.40851852  .00000000  00000+0  00000-0 0  9995
2 32424  65.0000 120.0000 0000000   0.0000  12.0000  3.48458077    11
CTC2_L_00579006-01
1 32425U 23674CQ  26070.40851852  .00000000  00000+0  00000-0 0  9995
2 32425  65.0000 150.0000 0000000   0.0000  60.0000  3.48458077    18
CTC2_L_00579006-02
1 32426U 22066I   26070.40851852  .00000000  00000+0  00000-0 0  9990
2 32426  65.0000 150.0000 0000000   0.0000  96.0000  3.48458077    18
CTC2_L_00579006-03
1 32427U 22672N   26070.40851852  .00000000  00000+0  00000-0 0  9994
2 32427  65.0000 150.0000 0000000   0.0000 132.0000  3.48458077    10
CTC2_L_00579006-04
1 32428U 26918YC  26070.40851852  .00000000  00000+0  00000-0 0  9992
2 32428  65.0000 150.0000 0000000   0.0000 168.0000  3.48458077    10
CTC2_L_00579006-05
1 32429U 24347MH  26070.40851852  .00000000  00000+0  00000-0 0  9997
2 32429  65.0000 150.0000 0000000   0.0000 204.0000  3.48458077    12
CTC2_L_00579006-06
1 32430U 23174ER  26070.40851852  .00000000  00000+0  00000-0 0  9996
2 32430  65.0000 150.0000 0000000   0.0000 240.0000  3.48458077    14
CTC2_L_00579006-07
1 32431U 26466AY  26070.40851852  .00000000  00000+0  00000-0 0  9994
2 32431  65.0000 150.0000 0000000   0.0000 276.0000  3.48458077    14
CTC2_L_00579006-08
1 32432U 23087HR  26070.40851852  .00000000  00000+0  00000-0 0  9991
2 32432  65.0000 150.0000 0000000   0.0000 312.0000  3.48458077    16
CTC2_L_00579006-09
1 32433U 24565GK  26070.40851852  .00000000  00000+0  00000-0 0  9994
2 32433  65.0000 150.0000 0000000   0.0000 348.0000  3.48458077    16
CTC2_L_00579006-10
1 32434U 24721JD  26070.40851852  .00000000  00000+0  00000-0 0  9999
2 32434  65.0000 150.0000 0000000   0.0000  24.0000  3.48458077    18
CTC2_L_00579007-01
1 32435U 22475RU  26070.40851852  .00000000  00000+0  00000-0 0  9994
2 32435  65.0000 180.0000 0000000   0.0000  72.0000  3.48458077    15
CTC2_L_00579007-02
1 32436U 24957NS  26070.40851852  .00000000  00000+0  00000-0 0  9992
2 32436  65.0000 180.0000 0000000   0.0000 108.0000  3.48458077    16
